{"type": "FeatureCollection", "features": [ {"type": "Feature", "properties": {"norad_id": 66950, "name": "STARLINK-36111", "group": "last-30-days", "lat": -47.14059584103034, "lon": -125.42315110823125, "alt_km": 358.34098995049953, "timestamp": "2025-12-22T15:43:47.687140+00:00", "meta": {"OBJECT_NAME": "STARLINK-36111", "OBJECT_ID": "2025-286AB", "EPOCH": "2025-12-22T06:00:02.000160", "MEAN_MOTION": 15.73797917, "ECCENTRICITY": 0.00010231, "INCLINATION": 53.1583, "RA_OF_ASC_NODE": 2.684, "ARG_OF_PERICENTER": 49.5502, "MEAN_ANOMALY": 59.9323, "EPHEMERIS_TYPE": 0, "CLASSIFICATION_TYPE": "U", "NORAD_CAT_ID": 66950, "ELEMENT_SET_NO": 999, "REV_AT_EPOCH": 352, "BSTAR": -0.015559515, "MEAN_MOTION_DOT": -0.01982037, "MEAN_MOTION_DDOT": 0}, "tle": {"line1": "1 66950U 25286AB  25356.25002315 -.01982037  00000+0 -15560-1 0  9997", "line2": "2 66950  53.1583   2.6840 0001023  49.5502  59.9323 15.73797917  3521"}}, "geometry": {"type": "Point", "coordinates": [-125.42315110823125, -47.14059584103034]}}, {"type": "Feature", "properties": {"norad_id": 66951, "name": "STARLINK-35999", "group": "last-30-days", "lat": -48.015015876783295, "lon": -122.90510264615669, "alt_km": 358.40871475746735, "timestamp": "2025-12-22T15:43:47.687151+00:00", "meta": {"OBJECT_NAME": "STARLINK-35999", "OBJECT_ID": "2025-286AC", "EPOCH": "2025-12-22T06:00:02.000160", "MEAN_MOTION": 15.73794887, "ECCENTRICITY": 0.00010865, "INCLINATION": 53.1584, "RA_OF_ASC_NODE": 2.6799, "ARG_OF_PERICENTER": 48.4801, "MEAN_ANOMALY": 62.9222, "EPHEMERIS_TYPE": 0, "CLASSIFICATION_TYPE": "U", "NORAD_CAT_ID": 66951, "ELEMENT_SET_NO": 999, "REV_AT_EPOCH": 352, "BSTAR": -0.015540984, "MEAN_MOTION_DOT": -0.01979771, "MEAN_MOTION_DDOT": 0}, "tle": {"line1": "1 66951U 25286AC  25356.25002315 -.01979771  00000+0 -15541-1 0  9998", "line2": "2 66951  53.1584   2.6799 0001086  48.4801  62.9222 15.73794887  3520"}}, "geometry": {"type": "Point", "coordinates": [-122.90510264615669, -48.015015876783295]}}, {"type": "Feature", "properties": {"norad_id": 66952, "name": "STARLINK-36122", "group": "last-30-days", "lat": -46.214754262216815, "lon": -127.85236434995933, "alt_km": 358.3902801671038, "timestamp": "2025-12-22T15:43:47.687164+00:00", "meta": {"OBJECT_NAME": "STARLINK-36122", "OBJECT_ID": "2025-286AD", "EPOCH": "2025-12-22T06:00:02.000160", "MEAN_MOTION": 15.73805863, "ECCENTRICITY": 0.00011256, "INCLINATION": 53.1584, "RA_OF_ASC_NODE": 2.6881, "ARG_OF_PERICENTER": 60.1205, "MEAN_ANOMALY": 47.4438, "EPHEMERIS_TYPE": 0, "CLASSIFICATION_TYPE": "U", "NORAD_CAT_ID": 66952, "ELEMENT_SET_NO": 999, "REV_AT_EPOCH": 352, "BSTAR": -0.015653893, "MEAN_MOTION_DOT": -0.01993341, "MEAN_MOTION_DDOT": 0}, "tle": {"line1": "1 66952U 25286AD  25356.25002315 -.01993341  00000+0 -15654-1 0  9993", "line2": "2 66952  53.1584   2.6881 0001125  60.1205  47.4438 15.73805863  3520"}}, "geometry": {"type": "Point", "coordinates": [-127.85236434995933, -46.214754262216815]}}, {"type": "Feature", "properties": {"norad_id": 66953, "name": "HULIANWANG DIGUI-114", "group": "last-30-days", "lat": 17.212710013975936, "lon": -16.362960218150487, "alt_km": 1020.6263168454598, "timestamp": "2025-12-22T15:43:47.687174+00:00", "meta": {"OBJECT_NAME": "HULIANWANG DIGUI-114", "OBJECT_ID": "2025-287A", "EPOCH": "2025-12-20T09:09:14.655168", "MEAN_MOTION": 13.66161866, "ECCENTRICITY": 0.00096738, "INCLINATION": 86.496, "RA_OF_ASC_NODE": 343.3747, "ARG_OF_PERICENTER": 185.0352, "MEAN_ANOMALY": 175.071, "EPHEMERIS_TYPE": 0, "CLASSIFICATION_TYPE": "U", "NORAD_CAT_ID": 66953, "ELEMENT_SET_NO": 999, "REV_AT_EPOCH": 157, "BSTAR": 3.033618e-06, "MEAN_MOTION_DOT": 1.9e-07, "MEAN_MOTION_DDOT": 0}, "tle": {"line1": "1 66953U 25287A   25354.38141962  .00000019  00000+0  30336-5 0  9995", "line2": "2 66953  86.4960 343.3747 0009673 185.0352 175.0710 13.66161866  1572"}}, "geometry": {"type": "Point", "coordinates": [-16.362960218150487, 17.212710013975936]}}, {"type": "Feature", "properties": {"norad_id": 66954, "name": "HULIANWANG DIGUI-115", "group": "last-30-days", "lat": 26.25749004818149, "lon": -15.718214116862857, "alt_km": 1016.9061446178948, "timestamp": "2025-12-22T15:43:47.687184+00:00", "meta": {"OBJECT_NAME": "HULIANWANG DIGUI-115", "OBJECT_ID": "2025-287B", "EPOCH": "2025-12-20T14:23:56.755680", "MEAN_MOTION": 13.66603826, "ECCENTRICITY": 0.00094984, "INCLINATION": 86.4975, "RA_OF_ASC_NODE": 343.2967, "ARG_OF_PERICENTER": 182.0064, "MEAN_ANOMALY": 178.1058, "EPHEMERIS_TYPE": 0, "CLASSIFICATION_TYPE": "U", "NORAD_CAT_ID": 66954, "ELEMENT_SET_NO": 999, "REV_AT_EPOCH": 160, "BSTAR": -9.79328e-07, "MEAN_MOTION_DOT": 1.6e-07, "MEAN_MOTION_DDOT": 0}, "tle": {"line1": "1 66954U 25287B   25354.59996245  .00000016  00000+0 -97933-6 0  9996", "line2": "2 66954  86.4975 343.2967 0009498 182.0064 178.1058 13.66603826  1604"}}, "geometry": {"type": "Point", "coordinates": [-15.718214116862857, 26.25749004818149]}}, {"type": "Feature", "properties": {"norad_id": 66955, "name": "HULIANWANG DIGUI-116", "group": "last-30-days", "lat": 35.570133735200955, "lon": -14.951828258022603, "alt_km": 1012.2644108030045, "timestamp": "2025-12-22T15:43:47.687194+00:00", "meta": {"OBJECT_NAME": "HULIANWANG DIGUI-116", "OBJECT_ID": "2025-287C", "EPOCH": "2025-12-20T16:07:29.631072", "MEAN_MOTION": 13.67009251, "ECCENTRICITY": 0.00086607, "INCLINATION": 86.4918, "RA_OF_ASC_NODE": 343.2556, "ARG_OF_PERICENTER": 174.268, "MEAN_ANOMALY": 185.8579, "EPHEMERIS_TYPE": 0, "CLASSIFICATION_TYPE": "U", "NORAD_CAT_ID": 66955, "ELEMENT_SET_NO": 999, "REV_AT_EPOCH": 161, "BSTAR": 0.00012368885, "MEAN_MOTION_DOT": 1.2e-06, "MEAN_MOTION_DDOT": 0}, "tle": {"line1": "1 66955U 25287C   25354.67187073  .00000120  00000+0  12369-3 0  9999", "line2": "2 66955  86.4918 343.2556 0008660 174.2680 185.8579 13.67009251  1610"}}, "geometry": {"type": "Point", "coordinates": [-14.951828258022603, 35.570133735200955]}}, {"type": "Feature", "properties": {"norad_id": 66956, "name": "HULIANWANG DIGUI-117", "group": "last-30-days", "lat": 50.10252164019455, "lon": -13.253524433060656, "alt_km": 1005.3795038256849, "timestamp": "2025-12-22T15:43:47.687204+00:00", "meta": {"OBJECT_NAME": "HULIANWANG DIGUI-117", "OBJECT_ID": "2025-287D", "EPOCH": "2025-12-18T14:55:12.079776", "MEAN_MOTION": 13.67770338, "ECCENTRICITY": 0.00076767, "INCLINATION": 86.4971, "RA_OF_ASC_NODE": 344.0126, "ARG_OF_PERICENTER": 176.3616, "MEAN_ANOMALY": 183.76, "EPHEMERIS_TYPE": 0, "CLASSIFICATION_TYPE": "U", "NORAD_CAT_ID": 66956, "ELEMENT_SET_NO": 999, "REV_AT_EPOCH": 133, "BSTAR": 1.0922436e-05, "MEAN_MOTION_DOT": 2.6e-07, "MEAN_MOTION_DDOT": 0}, "tle": {"line1": "1 66956U 25287D   25352.62166759  .00000026  00000+0  10922-4 0  9990", "line2": "2 66956  86.4971 344.0126 0007676 176.3616 183.7600 13.67770338  1332"}}, "geometry": {"type": "Point", "coordinates": [-13.253524433060656, 50.10252164019455]}}, {"type": "Feature", "properties": {"norad_id": 66957, "name": "HULIANWANG DIGUI-118", "group": "last-30-days", "lat": 53.055763891185705, "lon": -12.784205820393437, "alt_km": 1005.1708803311358, "timestamp": "2025-12-22T15:43:47.687213+00:00", "meta": {"OBJECT_NAME": "HULIANWANG DIGUI-118", "OBJECT_ID": "2025-287E", "EPOCH": "2025-12-21T00:50:13.849728", "MEAN_MOTION": 13.6751011, "ECCENTRICITY": 0.00054729, "INCLINATION": 86.4946, "RA_OF_ASC_NODE": 343.1304, "ARG_OF_PERICENTER": 170.9065, "MEAN_ANOMALY": 189.2194, "EPHEMERIS_TYPE": 0, "CLASSIFICATION_TYPE": "U", "NORAD_CAT_ID": 66957, "ELEMENT_SET_NO": 999, "REV_AT_EPOCH": 166, "BSTAR": 0.00013223305, "MEAN_MOTION_DOT": 1.28e-06, "MEAN_MOTION_DDOT": 0}, "tle": {"line1": "1 66957U 25287E   25355.03488252  .00000128  00000+0  13223-3 0  9993", "line2": "2 66957  86.4946 343.1304 0005472 170.9065 189.2194 13.67510110  1668"}}, "geometry": {"type": "Point", "coordinates": [-12.784205820393437, 53.055763891185705]}}, {"type": "Feature", "properties": {"norad_id": 66958, "name": "CZ-6A R/B", "group": "last-30-days", "lat": -86.32249313681979, "lon": -125.77008263715277, "alt_km": 993.7764772670644, "timestamp": "2025-12-22T15:43:47.687223+00:00", "meta": {"OBJECT_NAME": "CZ-6A R/B", "OBJECT_ID": "2025-287F", "EPOCH": "2025-12-22T05:50:26.932128", "MEAN_MOTION": 13.94921326, "ECCENTRICITY": 0.01072295, "INCLINATION": 86.5062, "RA_OF_ASC_NODE": 342.4876, "ARG_OF_PERICENTER": 73.5792, "MEAN_ANOMALY": 287.7136, "EPHEMERIS_TYPE": 0, "CLASSIFICATION_TYPE": "U", "NORAD_CAT_ID": 66958, "ELEMENT_SET_NO": 999, "REV_AT_EPOCH": 186, "BSTAR": 5.8471164e-05, "MEAN_MOTION_DOT": 1.01e-06, "MEAN_MOTION_DDOT": 0}, "tle": {"line1": "1 66958U 25287F   25356.24336727  .00000101  00000+0  58471-4 0  9993", "line2": "2 66958  86.5062 342.4876 0107229  73.5792 287.7136 13.94921326  1860"}}, "geometry": {"type": "Point", "coordinates": [-125.77008263715277, -86.32249313681979]}}, {"type": "Feature", "properties": {"norad_id": 66959, "name": "STARLINK-35887", "group": "last-30-days", "lat": -1.0716382735732746, "lon": 105.37918112578753, "alt_km": 344.35627131219644, "timestamp": "2025-12-22T15:43:47.687235+00:00", "meta": {"OBJECT_NAME": "STARLINK-35887", "OBJECT_ID": "2025-288A", "EPOCH": "2025-12-22T06:00:02.000160", "MEAN_MOTION": 15.75367686, "ECCENTRICITY": 0.00016406, "INCLINATION": 43.0004, "RA_OF_ASC_NODE": 108.9899, "ARG_OF_PERICENTER": 279.5562, "MEAN_ANOMALY": 297.3268, "EPHEMERIS_TYPE": 0, "CLASSIFICATION_TYPE": "U", "NORAD_CAT_ID": 66959, "ELEMENT_SET_NO": 999, "REV_AT_EPOCH": 336, "BSTAR": -0.0032617792, "MEAN_MOTION_DOT": -0.00480917, "MEAN_MOTION_DDOT": 0}, "tle": {"line1": "1 66959U 25288A   25356.25002315 -.00480917  00000+0 -32618-2 0  9991", "line2": "2 66959  43.0004 108.9899 0001640 279.5562 297.3268 15.75367686  3362"}}, "geometry": {"type": "Point", "coordinates": [105.37918112578753, -1.0716382735732746]}}]}